{
    "version": 3,
    "tle": [
        "AAUSAT4",
        "1 00001U 00001A   16113.99330000  .00000000  00000-0  00000-0 0  0012",
        "2 00001  98.2172 121.5194 0152400 241.4610 358.4169 15.02516156 00014"
    ],
    "radio_settings": {
        "bitrate": 2400,
        "power": 27,
        "training": 200,
        "frequency": 437425000,
        "modindex": 1
    }
}
